[{"OBJECT_NAME":"HELIOS 1B","OBJECT_ID":"1999-064A","EPOCH":"2026-04-01T17:10:35.822496","MEAN_MOTION":14.87787759,"ECCENTRICITY":0.0001643,"INCLINATION":98.1675,"RA_OF_ASC_NODE":354.6335,"ARG_OF_PERICENTER":46.1288,"MEAN_ANOMALY":314.0062,"EPHEMERIS_TYPE":0,"CLASSIFICATION_TYPE":"U","NORAD_CAT_ID":25977,"ELEMENT_SET_NO":999,"REV_AT_EPOCH":68868,"BSTAR":0.00020174,"MEAN_MOTION_DOT":1.783e-5,"MEAN_MOTION_DDOT":0},{"OBJECT_NAME":"TERRA","OBJECT_ID":"1999-068A","EPOCH":"2026-04-01T21:13:58.507680","MEAN_MOTION":14.61039412,"ECCENTRICITY":0.0003647,"INCLINATION":97.9544,"RA_OF_ASC_NODE":144.4278,"ARG_OF_PERICENTER":103.702,"MEAN_ANOMALY":68.9562,"EPHEMERIS_TYPE":0,"CLASSIFICATION_TYPE":"U","NORAD_CAT_ID":25994,"ELEMENT_SET_NO":999,"REV_AT_EPOCH":39846,"BSTAR":0.00011221,"MEAN_MOTION_DOT":5.06e-6,"MEAN_MOTION_DDOT":0},{"OBJECT_NAME":"SL-16 R/B","OBJECT_ID":"2000-006B","EPOCH":"2026-04-01T14:54:06.039072","MEAN_MOTION":14.15829762,"ECCENTRICITY":0.0015439,"INCLINATION":71.0032,"RA_OF_ASC_NODE":49.6168,"ARG_OF_PERICENTER":153.888,"MEAN_ANOMALY":206.3025,"EPHEMERIS_TYPE":0,"CLASSIFICATION_TYPE":"U","NORAD_CAT_ID":26070,"ELEMENT_SET_NO":999,"REV_AT_EPOCH":35180,"BSTAR":0.00013593,"MEAN_MOTION_DOT":2.2e-6,"MEAN_MOTION_DDOT":0},{"OBJECT_NAME":"TITAN 4B R/B","OBJECT_ID":"2000-047B","EPOCH":"2026-04-01T19:39:13.138848","MEAN_MOTION":15.09776367,"ECCENTRICITY":0.0040075,"INCLINATION":67.9909,"RA_OF_ASC_NODE":335.464,"ARG_OF_PERICENTER":8.2486,"MEAN_ANOMALY":351.9313,"EPHEMERIS_TYPE":0,"CLASSIFICATION_TYPE":"U","NORAD_CAT_ID":26474,"ELEMENT_SET_NO":999,"REV_AT_EPOCH":39640,"BSTAR":0.00025067,"MEAN_MOTION_DOT":3.998e-5,"MEAN_MOTION_DDOT":0},{"OBJECT_NAME":"ENVISAT","OBJECT_ID":"2002-009A","EPOCH":"2026-04-01T19:51:22.815360","MEAN_MOTION":14.39045053,"ECCENTRICITY":0.0001213,"INCLINATION":98.3767,"RA_OF_ASC_NODE":44.8793,"ARG_OF_PERICENTER":82.1801,"MEAN_ANOMALY":297.4256,"EPHEMERIS_TYPE":0,"CLASSIFICATION_TYPE":"U","NORAD_CAT_ID":27386,"ELEMENT_SET_NO":999,"REV_AT_EPOCH":26250,"BSTAR":5.9702e-5,"MEAN_MOTION_DOT":1.42e-6,"MEAN_MOTION_DDOT":0},{"OBJECT_NAME":"IDEFIX & ARIANE 42P R/B","OBJECT_ID":"2002-021B","EPOCH":"2026-04-01T13:39:49.652352","MEAN_MOTION":14.31041705,"ECCENTRICITY":0.0012782,"INCLINATION":98.5898,"RA_OF_ASC_NODE":29.9058,"ARG_OF_PERICENTER":117.2271,"MEAN_ANOMALY":243.0216,"EPHEMERIS_TYPE":0,"CLASSIFICATION_TYPE":"U","NORAD_CAT_ID":27422,"ELEMENT_SET_NO":999,"REV_AT_EPOCH":24729,"BSTAR":0.00013959,"MEAN_MOTION_DOT":3.24e-6,"MEAN_MOTION_DDOT":0},{"OBJECT_NAME":"AQUA","OBJECT_ID":"2002-022A","EPOCH":"2026-04-01T21:06:16.758432","MEAN_MOTION":14.62030529,"ECCENTRICITY":0.0001292,"INCLINATION":98.4214,"RA_OF_ASC_NODE":59.6737,"ARG_OF_PERICENTER":116.5416,"MEAN_ANOMALY":271.6514,"EPHEMERIS_TYPE":0,"CLASSIFICATION_TYPE":"U","NORAD_CAT_ID":27424,"ELEMENT_SET_NO":999,"REV_AT_EPOCH":27212,"BSTAR":0.00024658,"MEAN_MOTION_DOT":1.188e-5,"MEAN_MOTION_DDOT":0},{"OBJECT_NAME":"CZ-4B R/B","OBJECT_ID":"2002-024C","EPOCH":"2026-04-01T03:22:47.704224","MEAN_MOTION":14.1455166,"ECCENTRICITY":0.00493763,"INCLINATION":98.879,"RA_OF_ASC_NODE":144.4296,"ARG_OF_PERICENTER":320.1745,"MEAN_ANOMALY":97.793,"EPHEMERIS_TYPE":0,"CLASSIFICATION_TYPE":"U","NORAD_CAT_ID":27432,"ELEMENT_SET_NO":999,"REV_AT_EPOCH":23241,"BSTAR":5.5316137e-5,"MEAN_MOTION_DOT":6.3e-7,"MEAN_MOTION_DDOT":0},{"OBJECT_NAME":"MIDORI II (ADEOS-II)","OBJECT_ID":"2002-056A","EPOCH":"2026-04-01T15:00:10.003392","MEAN_MOTION":14.29302684,"ECCENTRICITY":5.41e-5,"INCLINATION":98.7808,"RA_OF_ASC_NODE":50.2669,"ARG_OF_PERICENTER":21.2699,"MEAN_ANOMALY":338.8505,"EPHEMERIS_TYPE":0,"CLASSIFICATION_TYPE":"U","NORAD_CAT_ID":27597,"ELEMENT_SET_NO":999,"REV_AT_EPOCH":21357,"BSTAR":0.00016592,"MEAN_MOTION_DOT":3.77e-6,"MEAN_MOTION_DDOT":0},{"OBJECT_NAME":"H-2A R/B","OBJECT_ID":"2002-056E","EPOCH":"2026-04-01T14:51:27.170208","MEAN_MOTION":14.33776523,"ECCENTRICITY":0.0071427,"INCLINATION":98.3243,"RA_OF_ASC_NODE":51.1173,"ARG_OF_PERICENTER":93.1914,"MEAN_ANOMALY":80.0952,"EPHEMERIS_TYPE":0,"CLASSIFICATION_TYPE":"U","NORAD_CAT_ID":27601,"ELEMENT_SET_NO":999,"REV_AT_EPOCH":21739,"BSTAR":0.00014383,"MEAN_MOTION_DOT":3.7e-6,"MEAN_MOTION_DDOT":0},{"OBJECT_NAME":"CZ-4B R/B","OBJECT_ID":"2003-049C","EPOCH":"2026-04-01T16:41:48.189696","MEAN_MOTION":14.55041012,"ECCENTRICITY":0.0048515,"INCLINATION":98.6895,"RA_OF_ASC_NODE":87.5067,"ARG_OF_PERICENTER":160.2155,"MEAN_ANOMALY":200.0937,"EPHEMERIS_TYPE":0,"CLASSIFICATION_TYPE":"U","NORAD_CAT_ID":28059,"ELEMENT_SET_NO":999,"REV_AT_EPOCH":18994,"BSTAR":0.00011226,"MEAN_MOTION_DOT":4.4e-6,"MEAN_MOTION_DDOT":0},{"OBJECT_NAME":"CZ-2C R/B","OBJECT_ID":"2004-012C","EPOCH":"2026-04-01T04:01:02.607456","MEAN_MOTION":15.67342443,"ECCENTRICITY":0.00135417,"INCLINATION":97.7179,"RA_OF_ASC_NODE":158.6306,"ARG_OF_PERICENTER":220.9226,"MEAN_ANOMALY":139.1019,"EPHEMERIS_TYPE":0,"CLASSIFICATION_TYPE":"U","NORAD_CAT_ID":28222,"ELEMENT_SET_NO":999,"REV_AT_EPOCH":20779,"BSTAR":0.00069485955,"MEAN_MOTION_DOT":0.00075596,"MEAN_MOTION_DDOT":0},{"OBJECT_NAME":"SL-16 R/B","OBJECT_ID":"2004-021B","EPOCH":"2026-04-01T12:13:27.622272","MEAN_MOTION":14.14597396,"ECCENTRICITY":0.0005199,"INCLINATION":71.0011,"RA_OF_ASC_NODE":184.6051,"ARG_OF_PERICENTER":341.409,"MEAN_ANOMALY":18.6841,"EPHEMERIS_TYPE":0,"CLASSIFICATION_TYPE":"U","NORAD_CAT_ID":28353,"ELEMENT_SET_NO":999,"REV_AT_EPOCH":12606,"BSTAR":0.00019963,"MEAN_MOTION_DOT":3.36e-6,"MEAN_MOTION_DDOT":0},{"OBJECT_NAME":"CZ-4B R/B","OBJECT_ID":"2004-035C","EPOCH":"2026-04-01T19:27:30.684384","MEAN_MOTION":15.29472229,"ECCENTRICITY":0.0030166,"INCLINATION":97.3456,"RA_OF_ASC_NODE":125.7777,"ARG_OF_PERICENTER":244.9278,"MEAN_ANOMALY":114.883,"EPHEMERIS_TYPE":0,"CLASSIFICATION_TYPE":"U","NORAD_CAT_ID":28415,"ELEMENT_SET_NO":999,"REV_AT_EPOCH":18344,"BSTAR":0.00030312,"MEAN_MOTION_DOT":8.704e-5,"MEAN_MOTION_DDOT":0},{"OBJECT_NAME":"CZ-2C R/B","OBJECT_ID":"2004-046B","EPOCH":"2026-04-01T11:37:27.014016","MEAN_MOTION":14.27000615,"ECCENTRICITY":0.0140631,"INCLINATION":98.1978,"RA_OF_ASC_NODE":5.048,"ARG_OF_PERICENTER":87.4871,"MEAN_ANOMALY":274.2402,"EPHEMERIS_TYPE":0,"CLASSIFICATION_TYPE":"U","NORAD_CAT_ID":28480,"ELEMENT_SET_NO":999,"REV_AT_EPOCH":11175,"BSTAR":8.8419e-5,"MEAN_MOTION_DOT":1.99e-6,"MEAN_MOTION_DDOT":0},{"OBJECT_NAME":"ARIANE 5 R/B","OBJECT_ID":"2004-049H","EPOCH":"2026-04-01T17:45:10.151712","MEAN_MOTION":14.85309145,"ECCENTRICITY":0.0082845,"INCLINATION":98.266,"RA_OF_ASC_NODE":261.0652,"ARG_OF_PERICENTER":276.4779,"MEAN_ANOMALY":82.7007,"EPHEMERIS_TYPE":0,"CLASSIFICATION_TYPE":"U","NORAD_CAT_ID":28499,"ELEMENT_SET_NO":999,"REV_AT_EPOCH":14921,"BSTAR":0.00012166,"MEAN_MOTION_DOT":1.045e-5,"MEAN_MOTION_DDOT":0},{"OBJECT_NAME":"CZ-2D R/B","OBJECT_ID":"2005-024B","EPOCH":"2026-04-01T18:48:44.360064","MEAN_MOTION":15.62322761,"ECCENTRICITY":0.0001911,"INCLINATION":97.3569,"RA_OF_ASC_NODE":107.8112,"ARG_OF_PERICENTER":303.415,"MEAN_ANOMALY":56.6925,"EPHEMERIS_TYPE":0,"CLASSIFICATION_TYPE":"U","NORAD_CAT_ID":28738,"ELEMENT_SET_NO":999,"REV_AT_EPOCH":14338,"BSTAR":0.00055027,"MEAN_MOTION_DOT":0.00048681,"MEAN_MOTION_DDOT":0}]
